[{"OBJECT_NAME":"STARLINK-34852","OBJECT_ID":"2025-237X","EPOCH":"2026-03-09T22:02:16.348128","MEAN_MOTION":15.30224487,"ECCENTRICITY":0.00016283,"INCLINATION":53.1615,"RA_OF_ASC_NODE":38.6972,"ARG_OF_PERICENTER":92.2015,"MEAN_ANOMALY":267.9172,"EPHEMERIS_TYPE":0,"CLASSIFICATION_TYPE":"U","NORAD_CAT_ID":66135,"ELEMENT_SET_NO":999,"REV_AT_EPOCH":2260,"BSTAR":0.0012758117,"MEAN_MOTION_DOT":0.00037647,"MEAN_MOTION_DDOT":0},{"OBJECT_NAME":"KUIPER-00226","OBJECT_ID":"2026-030X","EPOCH":"2026-03-09T15:01:51.726432","MEAN_MOTION":15.30655594,"ECCENTRICITY":0.0017713,"INCLINATION":51.8814,"RA_OF_ASC_NODE":220.1252,"ARG_OF_PERICENTER":64.2781,"MEAN_ANOMALY":296.003,"EPHEMERIS_TYPE":0,"CLASSIFICATION_TYPE":"U","NORAD_CAT_ID":67785,"ELEMENT_SET_NO":999,"REV_AT_EPOCH":507,"BSTAR":0.001553,"MEAN_MOTION_DOT":0.00046834,"MEAN_MOTION_DDOT":0}]
